{
    "links": {
        "self": "http://www.neowsapp.com/rest/v1/neo/3831843?api_key=iIulBulltgU6a56xZRHN4H3l9WmuAYTsLGpBGhQ2"
    },
    "id": "3831843",
    "neo_reference_id": "3831843",
    "name": "(2018 TQ5)",
    "designation": "2018 TQ5",
    "nasa_jpl_url": "http://ssd.jpl.nasa.gov/sbdb.cgi?sstr=3831843",
    "absolute_magnitude_h": 21.7,
    "estimated_diameter": {
        "kilometers": {
            "estimated_diameter_min": 0.1214940408,
            "estimated_diameter_max": 0.2716689341
        },
        "meters": {
            "estimated_diameter_min": 121.4940407996,
            "estimated_diameter_max": 271.6689340891
        },
        "miles": {
            "estimated_diameter_min": 0.0754928736,
            "estimated_diameter_max": 0.1688071972
        },
        "feet": {
            "estimated_diameter_min": 398.6025088171,
            "estimated_diameter_max": 891.3023057169
        }
    },
    "is_potentially_hazardous_asteroid": false,
    "close_approach_data": [
        {
            "close_approach_date": "2018-10-17",
            "close_approach_date_full": "2018-Oct-17 00:29",
            "epoch_date_close_approach": 1539736140000,
            "relative_velocity": {
                "kilometers_per_second": "31.9005172814",
                "kilometers_per_hour": "114841.8622130443",
                "miles_per_hour": "71358.2671067663"
            },
            "miss_distance": {
                "astronomical": "0.1667520039",
                "lunar": "64.8665295171",
                "kilometers": "24945744.601671693",
                "miles": "15500566.9246396434"
            },
            "orbiting_body": "Earth"
        }
    ],
    "orbital_data": {
        "orbit_id": "3",
        "orbit_determination_date": "2018-10-20 06:54:52",
        "first_observation_date": "2018-10-10",
        "last_observation_date": "2018-10-20",
        "data_arc_in_days": 10,
        "observations_used": 39,
        "orbit_uncertainty": "9",
        "minimum_orbit_intersection": ".121694",
        "jupiter_tisserand_invariant": "3.020",
        "epoch_osculation": "2458403.5",
        "eccentricity": ".5711163861629677",
        "semi_major_axis": "2.172807078784702",
        "inclination": "53.9223556321973",
        "ascending_node_longitude": "205.3942604009908",
        "orbital_period": "1169.849996519612",
        "perihelion_distance": ".9318813521198686",
        "perihelion_argument": "238.9245201484929",
        "aphelion_distance": "3.413732805449536",
        "perihelion_time": "2458451.130254595321",
        "mean_anomaly": "345.3426578575639",
        "mean_motion": ".3077317613976371",
        "equinox": "J2000",
        "orbit_class": {
            "orbit_class_type": "APO",
            "orbit_class_description": "Near-Earth asteroid orbits which cross the Earth’s orbit similar to that of 1862 Apollo",
            "orbit_class_range": "a (semi-major axis) > 1.0 AU; q (perihelion) < 1.017 AU"
        }
    },
    "is_sentry_object": false
}